{
    "links": {
        "self": "http://www.neowsapp.com/rest/v1/neo/3647847?api_key=iIulBulltgU6a56xZRHN4H3l9WmuAYTsLGpBGhQ2"
    },
    "id": "3647847",
    "neo_reference_id": "3647847",
    "name": "(2013 RJ36)",
    "designation": "2013 RJ36",
    "nasa_jpl_url": "http://ssd.jpl.nasa.gov/sbdb.cgi?sstr=3647847",
    "absolute_magnitude_h": 22.1,
    "estimated_diameter": {
        "kilometers": {
            "estimated_diameter_min": 0.1010543415,
            "estimated_diameter_max": 0.2259643771
        },
        "meters": {
            "estimated_diameter_min": 101.054341542,
            "estimated_diameter_max": 225.9643771094
        },
        "miles": {
            "estimated_diameter_min": 0.0627922373,
            "estimated_diameter_max": 0.140407711
        },
        "feet": {
            "estimated_diameter_min": 331.5431259047,
            "estimated_diameter_max": 741.3529669956
        }
    },
    "is_potentially_hazardous_asteroid": false,
    "close_approach_data": [
        {
            "close_approach_date": "2013-10-05",
            "close_approach_date_full": "2013-Oct-05 00:20",
            "epoch_date_close_approach": 1380932400000,
            "relative_velocity": {
                "kilometers_per_second": "3.0879854957",
                "kilometers_per_hour": "11116.7477843769",
                "miles_per_hour": "6907.5147552424"
            },
            "miss_distance": {
                "astronomical": "0.2827530525",
                "lunar": "109.9909374225",
                "kilometers": "42299254.389998175",
                "miles": "26283537.894097815"
            },
            "orbiting_body": "Earth"
        }
    ],
    "orbital_data": {
        "orbit_id": "15",
        "orbit_determination_date": "2017-04-06 08:44:45",
        "first_observation_date": "2013-09-09",
        "last_observation_date": "2013-10-31",
        "data_arc_in_days": 52,
        "observations_used": 36,
        "orbit_uncertainty": "6",
        "minimum_orbit_intersection": ".283179",
        "jupiter_tisserand_invariant": "4.086",
        "epoch_osculation": "2459000.5",
        "eccentricity": ".2680314449555479",
        "semi_major_axis": "1.749297812563441",
        "inclination": "5.998091403061996",
        "ascending_node_longitude": "4.394864477779695",
        "orbital_period": "845.0726696241896",
        "perihelion_distance": "1.280430992204483",
        "perihelion_argument": "14.24428393752246",
        "aphelion_distance": "2.218164632922399",
        "perihelion_time": "2459114.759135206355",
        "mean_anomaly": "311.3257378296472",
        "mean_motion": ".425998867245458",
        "equinox": "J2000",
        "orbit_class": {
            "orbit_class_type": "AMO",
            "orbit_class_description": "Near-Earth asteroid orbits similar to that of 1221 Amor",
            "orbit_class_range": "1.017 AU < q (perihelion) < 1.3 AU"
        }
    },
    "is_sentry_object": false
}